SKYSAT-C4               
1 41771U 16058B   26193.59115844  .00011647  00000+0  21392-3 0  9996
2 41771  96.9166 214.3113 0003375 121.6663 238.4919 15.49378795549403
SKYSAT-C5               
1 41772U 16058C   26194.64543240  .00004323  00000+0  13491-3 0  9993
2 41772  97.0457 234.1005 0002362 164.8572 195.2743 15.33705753547800
SKYSAT-C2               
1 41773U 16058D   26194.59979318  .00007526  00000+0  17463-3 0  9998
2 41773  97.0164 215.7083 0001785   0.0746   0.0502 15.42656231549128
SKYSAT-C3               
1 41774U 16058E   26194.62408406  .00015609  00000+0  24573-3 0  9999
2 41774  96.8988 224.4719 0002484 134.4789 225.6669 15.53657678550218
ALSAT-1B                
1 41785U 16059C   26194.88165324  .00000341  00000+0  61436-4 0  9996
2 41785  97.7753 202.4933 0010219 133.4687 226.7372 14.72294442524507
PATHFINDER 1            
1 41787U 16059E   26194.79341919  .00000285  00000+0  57872-4 0  9990
2 41787  97.8176 192.8700 0029754 119.9766 240.4399 14.67692173523614
SCATSAT 1               
1 41790U 16059H   26194.72389854  .00000679  00000+0  95748-4 0  9998
2 41790  98.1179 258.7624 0055127 161.2562 199.0696 14.79585038105517
GOKTURK 1A              
1 41875U 16073A   26194.85472194 -.00000023  00000+0  45887-5 0  9996
2 41875  98.1225  89.1079 0001416  80.2638 279.8724 14.62791870512728
RESOURCESAT-2A          
1 41877U 16074A   26194.81611152  .00000155  00000+0  91016-4 0  9993
2 41877  98.7527 268.1014 0002472  31.7067 328.4258 14.21608844498087
CARTOSAT-2D             
1 41948U 17008A   26194.83328317  .00002043  00000+0  10006-3 0  9997
2 41948  97.4100 253.6390 0005862 142.8002 217.3640 15.19277529521622
SENTINEL-2B             
1 42063U 17013A   26194.85086288 -.00000224  00000+0 -68802-4 0  9991
2 42063  98.5692 269.2478 0001226  90.0389 270.0934 14.30813774488456
CARTOSAT-2E             
1 42767U 17036C   26194.85102495  .00001409  00000+0  70084-4 0  9995
2 42767  97.4267 254.2118 0003099 193.6488 166.4663 15.19245303502198
FORMOSAT-5              
1 42920U 17049A   26194.81056782  .00000038  00000+0  20659-4 0  9993
2 42920  98.2247 269.5280 0011425   8.0682 352.0695 14.50907575470532
SENTINEL-5P             
1 42969U 17064A   26194.84554815 -.00000005  00000+0  18749-4 0  9998
2 42969  98.7929 136.7881 0001111  93.4000 266.7303 14.19523141453347
SKYSAT-C11              
1 42987U 17068A   26194.38071131  .00019174  00000+0  24539-3 0  9995
2 42987  97.4370 344.3823 0001083 159.1653 200.9648 15.59255142487323
SKYSAT-C10              
1 42988U 17068B   26194.82645716  .00006257  00000+0  18613-3 0  9995
2 42988  97.4533 331.9455 0001429 109.4223 250.7175 15.35099425486447
SKYSAT-C9               
1 42989U 17068C   26194.84704615  .00007774  00000+0  18306-3 0  9996
2 42989  97.4452 333.1596 0008765  49.1345 311.0660 15.42193178486867
SKYSAT-C8               
1 42990U 17068D   26194.88702979  .00006283  00000+0  17326-3 0  9998
2 42990  97.4550 331.9095 0001236 102.2605 257.8778 15.37475090486412
SKYSAT-C7               
1 42991U 17068E   26194.88147227  .00006163  00000+0  17019-3 0  9994
2 42991  97.4561 332.8952 0005816  25.8991 334.2544 15.37426088486473
SKYSAT-C6               
1 42992U 17068F   26194.82331198  .00005361  00000+0  16462-3 0  9991
2 42992  97.4599 332.6960 0005137  92.6893 267.4938 15.34154916486403
CARTOSAT-2F             
1 43111U 18004A   26194.81772493  .00001204  00000+0  60362-4 0  9993
2 43111  97.4783 254.1899 0002627 138.0769 222.0667 15.19262449471379
GAOFEN-1 02             
1 43259U 18031A   26194.86471624  .00000270  00000+0  46226-4 0  9998
2 43259  98.0522 257.3150 0001559 295.0095  65.0952 14.76469988446636
GAOFEN-1 03             
1 43260U 18031B   26194.84280553  .00000361  00000+0  59243-4 0  9991
2 43260  98.0504 257.1490 0002513  19.3253 340.8051 14.76461451446627
GAOFEN-1 04             
1 43262U 18031D   26194.88628582  .00000600  00000+0  93659-4 0  9990
2 43262  98.0523 257.3863 0001373  56.4221 303.7119 14.76470982446628
SENTINEL-3B             
1 43437U 18039A   26194.76891941 -.00000021  00000+0  93710-5 0  9997
2 43437  98.6237 261.9181 0001117 119.0737 241.0555 14.26735895427919
GAOFEN-5 01             
1 43461U 18043A   26194.84706472  .00000127  00000+0  36229-4 0  9999
2 43461  98.4589 166.9960 0002165  34.9247 325.2095 14.60622740435586
GAOFEN-6                
1 43484U 18048A   26194.84098868 -.00000010  00000+0  60982-5 0  9998
2 43484  98.0967 257.5394 0012144  85.4680 274.7917 14.76381538437324
GAOFEN-11 01            
1 43585U 18063A   26194.86762286  .00009432  00000+0  13683-3 0  9991
2 43585  97.1285 261.6827 0002946 204.6532 155.4583 15.56040676444490
ICESAT-2                
1 43613U 18070A   26194.80505653  .00005401  00000+0  19674-3 0  9996
2 43613  92.0097 298.1722 0005328  64.1263 296.0535 15.28162260436520
HYSIS                   
1 43719U 18096A   26194.80599377  .00000457  00000+0  69425-4 0  9993
2 43719  97.9835 261.3434 0001845  84.3212 275.8209 14.78667701411352
KAZSTSAT                
1 43783U 18099AB  26194.31546564  .00000676  00000+0  58934-4 0  9999
2 43783  97.4319 225.0657 0007458 348.5127  11.5926 14.99953170415227
