OBJECT_NAME,OBJECT_ID,EPOCH,MEAN_MOTION,ECCENTRICITY,INCLINATION,RA_OF_ASC_NODE,ARG_OF_PERICENTER,MEAN_ANOMALY,EPHEMERIS_TYPE,CLASSIFICATION_TYPE,NORAD_CAT_ID,ELEMENT_SET_NO,REV_AT_EPOCH,BSTAR,MEAN_MOTION_DOT,MEAN_MOTION_DDOT
SKYSAT-C4,2016-058B,2026-07-12T14:11:16.089216,15.49378795,.0003375,96.9166,214.3113,121.6663,238.4919,0,U,41771,999,54940,.21392E-3,.11647E-3,0
SKYSAT-C5,2016-058C,2026-07-13T15:29:25.359360,15.33705753,.0002362,97.0457,234.1005,164.8572,195.2743,0,U,41772,999,54780,.13491E-3,.4323E-4,0
SKYSAT-C2,2016-058D,2026-07-13T14:23:42.130752,15.42656231,.0001785,97.0164,215.7083,0.0746,0.0502,0,U,41773,999,54912,.17463E-3,.7526E-4,0
SKYSAT-C3,2016-058E,2026-07-13T14:58:40.862784,15.53657678,.0002484,96.8988,224.4719,134.4789,225.6669,0,U,41774,999,55021,.24573E-3,.15609E-3,0
ALSAT-1B,2016-059C,2026-07-13T21:09:34.839936,14.72294442,.0010219,97.7753,202.4933,133.4687,226.7372,0,U,41785,999,52450,.61436E-4,.341E-5,0
PATHFINDER 1,2016-059E,2026-07-13T19:02:31.418016,14.67692173,.0029754,97.8176,192.8700,119.9766,240.4399,0,U,41787,999,52361,.57872E-4,.285E-5,0
SCATSAT 1,2016-059H,2026-07-13T17:22:24.833856,14.79585038,.0055127,98.1179,258.7624,161.2562,199.0696,0,U,41790,999,10551,.95748E-4,.679E-5,0
GOKTURK 1A,2016-073A,2026-07-13T20:30:47.975616,14.62791870,.0001416,98.1225,89.1079,80.2638,279.8724,0,U,41875,999,51272,.45887E-5,-.23E-6,0
RESOURCESAT-2A,2016-074A,2026-07-13T19:35:12.035328,14.21608844,.0002472,98.7527,268.1014,31.7067,328.4258,0,U,41877,999,49808,.91016E-4,.155E-5,0
CARTOSAT-2D,2017-008A,2026-07-13T19:59:55.665888,15.19277529,.0005862,97.4100,253.6390,142.8002,217.3640,0,U,41948,999,52162,.10006E-3,.2043E-4,0
SENTINEL-2B,2017-013A,2026-07-13T20:25:14.552832,14.30813774,.0001226,98.5692,269.2478,90.0389,270.0934,0,U,42063,999,48845,-.68802E-4,-.224E-5,0
CARTOSAT-2E,2017-036C,2026-07-13T20:25:28.555680,15.19245303,.0003099,97.4267,254.2118,193.6488,166.4663,0,U,42767,999,50219,.70084E-4,.1409E-4,0
FORMOSAT-5,2017-049A,2026-07-13T19:27:13.059648,14.50907575,.0011425,98.2247,269.5280,8.0682,352.0695,0,U,42920,999,47053,.20659E-4,.38E-6,0
SENTINEL-5P,2017-064A,2026-07-13T20:17:35.360160,14.19523141,.0001111,98.7929,136.7881,93.4000,266.7303,0,U,42969,999,45334,.18749E-4,-.5E-7,0
SKYSAT-C11,2017-068A,2026-07-13T09:08:13.457184,15.59255142,.00010834,97.4370,344.3823,159.1653,200.9648,0,U,42987,999,48732,.24538513E-3,.19174E-3,0
SKYSAT-C10,2017-068B,2026-07-13T19:50:05.898624,15.35099425,.0001429,97.4533,331.9455,109.4223,250.7175,0,U,42988,999,48644,.18613E-3,.6257E-4,0
SKYSAT-C9,2017-068C,2026-07-13T20:19:44.787360,15.42193178,.0008765,97.4452,333.1596,49.1345,311.0660,0,U,42989,999,48686,.18306E-3,.7774E-4,0
SKYSAT-C8,2017-068D,2026-07-13T21:17:19.373856,15.37475090,.0001236,97.4550,331.9095,102.2605,257.8778,0,U,42990,999,48641,.17326E-3,.6283E-4,0
SKYSAT-C7,2017-068E,2026-07-13T21:09:19.204128,15.37426088,.0005816,97.4561,332.8952,25.8991,334.2544,0,U,42991,999,48647,.17019E-3,.6163E-4,0
SKYSAT-C6,2017-068F,2026-07-13T19:45:34.155072,15.34154916,.0005137,97.4599,332.6960,92.6893,267.4938,0,U,42992,999,48640,.16462E-3,.5361E-4,0
CARTOSAT-2F,2018-004A,2026-07-13T19:37:31.433952,15.19262449,.0002627,97.4783,254.1899,138.0769,222.0667,0,U,43111,999,47137,.60362E-4,.1204E-4,0
GAOFEN-1 02,2018-031A,2026-07-13T20:45:11.483136,14.76469988,.0001559,98.0522,257.3150,295.0095,65.0952,0,U,43259,999,44663,.46226E-4,.27E-5,0
GAOFEN-1 03,2018-031B,2026-07-13T20:13:38.397792,14.76461451,.0002513,98.0504,257.1490,19.3253,340.8051,0,U,43260,999,44662,.59243E-4,.361E-5,0
GAOFEN-1 04,2018-031D,2026-07-13T21:16:15.094848,14.76470982,.0001373,98.0523,257.3863,56.4221,303.7119,0,U,43262,999,44662,.93659E-4,.6E-5,0
SENTINEL-3B,2018-039A,2026-07-13T18:27:14.637024,14.26735895,.0001117,98.6237,261.9181,119.0737,241.0555,0,U,43437,999,42791,.9371E-5,-.21E-6,0
GAOFEN-5 01,2018-043A,2026-07-13T20:19:46.391808,14.60622740,.0002165,98.4589,166.9960,34.9247,325.2095,0,U,43461,999,43558,.36229E-4,.127E-5,0
GAOFEN-6,2018-048A,2026-07-13T20:11:01.421952,14.76381538,.0012144,98.0967,257.5394,85.4680,274.7917,0,U,43484,999,43732,.60982E-5,-.1E-6,0
GAOFEN-11 01,2018-063A,2026-07-13T20:49:22.615104,15.56040676,.0002946,97.1285,261.6827,204.6532,155.4583,0,U,43585,999,44449,.13683E-3,.9432E-4,0
ICESAT-2,2018-070A,2026-07-13T19:19:16.884192,15.28162260,.0005328,92.0097,298.1722,64.1263,296.0535,0,U,43613,999,43652,.19674E-3,.5401E-4,0
HYSIS,2018-096A,2026-07-13T19:20:37.861728,14.78667701,.0001845,97.9835,261.3434,84.3212,275.8209,0,U,43719,999,41135,.69425E-4,.457E-5,0
KAZSTSAT,2018-099AB,2026-07-13T07:34:16.231296,14.99953170,.00074587,97.4319,225.0657,348.5127,11.5926,0,U,43783,999,41522,.58934387E-4,.676E-5,0
